{
  "type": "FeatureCollection",
  "features": [
    {
      "type": "Feature",
      "properties": {
        "norad_id": 44793,
        "name": "BEIDOU-3 M22 (C44)",
        "group": "beidou",
        "lat": -6.3988006844433105,
        "lon": 131.3483152088331,
        "alt_km": 21544.212203967523,
        "timestamp": "2025-12-03T08:58:46.265446+00:00",
        "meta_object_name": "BEIDOU-3 M22 (C44)",
        "meta_object_id": "2019-078A",
        "meta_epoch": "2025-12-02T00:28:58.554624",
        "meta_mean_motion": 1.86231817,
        "meta_eccentricity": 0.00056333,
        "meta_inclination": 54.1183,
        "meta_ra_of_asc_node": 306.7625,
        "meta_arg_of_pericenter": 22.616,
        "meta_mean_anomaly": 337.398,
        "meta_ephemeris_type": 0,
        "meta_classification_type": "U",
        "meta_norad_cat_id": 44793,
        "meta_element_set_no": 999,
        "meta_rev_at_epoch": 4097,
        "meta_bstar": 0,
        "meta_mean_motion_dot": -6.1e-07,
        "meta_mean_motion_ddot": 0,
        "tle_line1": "1 44793U 19078A   25336.02012216 -.00000061  00000+0  00000+0 0  9991",
        "tle_line2": "2 44793  54.1183 306.7625 0005633  22.6160 337.3980  1.86231817 40974"
      },
      "geometry": {
        "type": "Point",
        "coordinates": [
          131.3483152088331,
          -6.3988006844433105
        ]
      }
    },
    {
      "type": "Feature",
      "properties": {
        "norad_id": 44794,
        "name": "BEIDOU-3 M21 (C43)",
        "group": "beidou",
        "lat": 53.68958822734943,
        "lon": 46.37609172686622,
        "alt_km": 21521.289099044494,
        "timestamp": "2025-12-03T08:58:46.265465+00:00",
        "meta_object_name": "BEIDOU-3 M21 (C43)",
        "meta_object_id": "2019-078B",
        "meta_epoch": "2025-12-01T02:00:26.030304",
        "meta_mean_motion": 1.86227539,
        "meta_eccentricity": 0.00038706,
        "meta_inclination": 54.0922,
        "meta_ra_of_asc_node": 306.7607,
        "meta_arg_of_pericenter": 10.0971,
        "meta_mean_anomaly": 349.9036,
        "meta_ephemeris_type": 0,
        "meta_classification_type": "U",
        "meta_norad_cat_id": 44794,
        "meta_element_set_no": 999,
        "meta_rev_at_epoch": 4096,
        "meta_bstar": 0,
        "meta_mean_motion_dot": -5.7e-07,
        "meta_mean_motion_ddot": 0,
        "tle_line1": "1 44794U 19078B   25335.08363461 -.00000057  00000+0  00000+0 0  9993",
        "tle_line2": "2 44794  54.0922 306.7607 0003870  10.0971 349.9036  1.86227539 40963"
      },
      "geometry": {
        "type": "Point",
        "coordinates": [
          46.37609172686622,
          53.68958822734943
        ]
      }
    },
    {
      "type": "Feature",
      "properties": {
        "norad_id": 44864,
        "name": "BEIDOU-3 M19 (C41)",
        "group": "beidou",
        "lat": -50.87603532239013,
        "lon": 14.527704855606801,
        "alt_km": 21485.08420090286,
        "timestamp": "2025-12-03T08:58:46.265485+00:00",
        "meta_object_name": "BEIDOU-3 M19 (C41)",
        "meta_object_id": "2019-090A",
        "meta_epoch": "2025-12-02T22:27:31.551840",
        "meta_mean_motion": 1.86231053,
        "meta_eccentricity": 0.0017561,
        "meta_inclination": 56.3847,
        "meta_ra_of_asc_node": 69.2872,
        "meta_arg_of_pericenter": 284.9296,
        "meta_mean_anomaly": 72.494,
        "meta_ephemeris_type": 0,
        "meta_classification_type": "U",
        "meta_norad_cat_id": 44864,
        "meta_element_set_no": 999,
        "meta_rev_at_epoch": 4057,
        "meta_bstar": 0,
        "meta_mean_motion_dot": -4.9e-07,
        "meta_mean_motion_ddot": 0,
        "tle_line1": "1 44864U 19090A   25336.93578185 -.00000049  00000+0  00000+0 0  9992",
        "tle_line2": "2 44864  56.3847  69.2872 0017561 284.9296  72.4940  1.86231053 40576"
      },
      "geometry": {
        "type": "Point",
        "coordinates": [
          14.527704855606801,
          -50.87603532239013
        ]
      }
    },
    {
      "type": "Feature",
      "properties": {
        "norad_id": 44865,
        "name": "BEIDOU-3 M20 (C42)",
        "group": "beidou",
        "lat": 17.45397721212763,
        "lon": 81.36095494296337,
        "alt_km": 21521.27849072029,
        "timestamp": "2025-12-03T08:58:46.265504+00:00",
        "meta_object_name": "BEIDOU-3 M20 (C42)",
        "meta_object_id": "2019-090B",
        "meta_epoch": "2025-12-02T19:15:49.919904",
        "meta_mean_motion": 1.86231044,
        "meta_eccentricity": 0.0014683,
        "meta_inclination": 56.3861,
        "meta_ra_of_asc_node": 69.3259,
        "meta_arg_of_pericenter": 297.6742,
        "meta_mean_anomaly": 60.1134,
        "meta_ephemeris_type": 0,
        "meta_classification_type": "U",
        "meta_norad_cat_id": 44865,
        "meta_element_set_no": 999,
        "meta_rev_at_epoch": 4055,
        "meta_bstar": 0,
        "meta_mean_motion_dot": -4.8e-07,
        "meta_mean_motion_ddot": 0,
        "tle_line1": "1 44865U 19090B   25336.80266111 -.00000048  00000+0  00000+0 0  9991",
        "tle_line2": "2 44865  56.3861  69.3259 0014683 297.6742  60.1134  1.86231044 40559"
      },
      "geometry": {
        "type": "Point",
        "coordinates": [
          81.36095494296337,
          17.45397721212763
        ]
      }
    },
    {
      "type": "Feature",
      "properties": {
        "norad_id": 45344,
        "name": "BEIDOU-3 G2 (C60)",
        "group": "beidou",
        "lat": -2.6849903090308533,
        "lon": -72.8584844576373,
        "alt_km": 35768.67780063285,
        "timestamp": "2025-12-03T08:58:46.265525+00:00",
        "meta_object_name": "BEIDOU-3 G2 (C60)",
        "meta_object_id": "2020-017A",
        "meta_epoch": "2025-12-03T03:51:51.205248",
        "meta_mean_motion": 1.00270324,
        "meta_eccentricity": 0.0004599,
        "meta_inclination": 2.9821,
        "meta_ra_of_asc_node": 43.5578,
        "meta_arg_of_pericenter": 263.8492,
        "meta_mean_anomaly": 262.8657,
        "meta_ephemeris_type": 0,
        "meta_classification_type": "U",
        "meta_norad_cat_id": 45344,
        "meta_element_set_no": 999,
        "meta_rev_at_epoch": 2129,
        "meta_bstar": 0,
        "meta_mean_motion_dot": -1.24e-06,
        "meta_mean_motion_ddot": 0,
        "tle_line1": "1 45344U 20017A   25337.16100932 -.00000124  00000+0  00000+0 0  9998",
        "tle_line2": "2 45344   2.9821  43.5578 0004599 263.8492 262.8657  1.00270324 21296"
      },
      "geometry": {
        "type": "Point",
        "coordinates": [
          -72.8584844576373,
          -2.6849903090308533
        ]
      }
    },
    {
      "type": "Feature",
      "properties": {
        "norad_id": 45807,
        "name": "BEIDOU-3 G3 (C61)",
        "group": "beidou",
        "lat": -1.8614585181380718,
        "lon": -42.41215915867646,
        "alt_km": 35775.6534500911,
        "timestamp": "2025-12-03T08:58:46.265547+00:00",
        "meta_object_name": "BEIDOU-3 G3 (C61)",
        "meta_object_id": "2020-040A",
        "meta_epoch": "2025-12-02T16:32:21.615648",
        "meta_mean_motion": 1.00266999,
        "meta_eccentricity": 0.00049779,
        "meta_inclination": 1.9649,
        "meta_ra_of_asc_node": 66.5165,
        "meta_arg_of_pericenter": 305.4436,
        "meta_mean_anomaly": 58.4408,
        "meta_ephemeris_type": 0,
        "meta_classification_type": "U",
        "meta_norad_cat_id": 45807,
        "meta_element_set_no": 999,
        "meta_rev_at_epoch": 2010,
        "meta_bstar": 0,
        "meta_mean_motion_dot": -3.34e-06,
        "meta_mean_motion_ddot": 0,
        "tle_line1": "1 45807U 20040A   25336.68913907 -.00000334  00000+0  00000+0 0  9991",
        "tle_line2": "2 45807   1.9649  66.5165 0004977 305.4436  58.4408  1.00266999 20100"
      },
      "geometry": {
        "type": "Point",
        "coordinates": [
          -42.41215915867646,
          -1.8614585181380718
        ]
      }
    },
    {
      "type": "Feature",
      "properties": {
        "norad_id": 56564,
        "name": "BEIDOU-3 G4 (C62)",
        "group": "beidou",
        "lat": 0.7849645393265886,
        "lon": 7.188033741776758,
        "alt_km": 35800.02701002067,
        "timestamp": "2025-12-03T08:58:46.265568+00:00",
        "meta_object_name": "BEIDOU-3 G4 (C62)",
        "meta_object_id": "2023-066A",
        "meta_epoch": "2025-12-03T04:14:41.515296",
        "meta_mean_motion": 1.0027098,
        "meta_eccentricity": 0.000335,
        "meta_inclination": 0.8375,
        "meta_ra_of_asc_node": 301.2119,
        "meta_arg_of_pericenter": 234.9328,
        "meta_mean_anomaly": 119.8675,
        "meta_ephemeris_type": 0,
        "meta_classification_type": "U",
        "meta_norad_cat_id": 56564,
        "meta_element_set_no": 999,
        "meta_rev_at_epoch": 942,
        "meta_bstar": 0,
        "meta_mean_motion_dot": -9.2e-07,
        "meta_mean_motion_ddot": 0,
        "tle_line1": "1 56564U 23066A   25337.17686939 -.00000092  00000+0  00000+0 0  9992",
        "tle_line2": "2 56564   0.8375 301.2119 0003350 234.9328 119.8675  1.00270980  9429"
      },
      "geometry": {
        "type": "Point",
        "coordinates": [
          7.188033741776758,
          0.7849645393265886
        ]
      }
    }
  ]
}